{
  "norad_id": 67147,
  "name": "KUIPER-00221",
  "history": [
    {
      "epoch": "2026-03-28T22:08:26.251584Z",
      "apogee_km": 630.1000328333648,
      "perigee_km": 628.8903753622935,
      "latitude_deg": 2.093416930797219e-05,
      "longitude_deg": -162.88388438843378,
      "height_km": 630.4876869452554,
      "semi_major_axis_km": 7007.632204097829,
      "eccentricity": 8.631e-05,
      "inclination_deg": 51.9035,
      "raan_deg": 355.5615,
      "arg_perigee_deg": 114.0375,
      "mean_anomaly_deg": 246.0678,
      "mean_motion_rev_day": 14.79945806
    },
    {
      "epoch": "2026-03-28T23:45:40.778784Z",
      "apogee_km": 630.0924656229508,
      "perigee_km": 628.8941608393889,
      "latitude_deg": -5.4542373364894246e-05,
      "longitude_deg": 172.44026686640768,
      "height_km": 630.4721570992536,
      "semi_major_axis_km": 7007.63031323117,
      "eccentricity": 8.55e-05,
      "inclination_deg": 51.9035,
      "raan_deg": 355.2628,
      "arg_perigee_deg": 112.8556,
      "mean_anomaly_deg": 247.2496,
      "mean_motion_rev_day": 14.79946405
    },
    {
      "epoch": "2026-03-30T03:18:46.748448Z",
      "apogee_km": 630.0559188124726,
      "perigee_km": 628.8126355164777,
      "latitude_deg": 2.2577208406201257e-05,
      "longitude_deg": 112.95804766655509,
      "height_km": 630.440926955967,
      "semi_major_axis_km": 7007.571277164475,
      "eccentricity": 8.871e-05,
      "inclination_deg": 51.9035,
      "raan_deg": 350.1869,
      "arg_perigee_deg": 114.7799,
      "mean_anomaly_deg": 245.3256,
      "mean_motion_rev_day": 14.79965107
    },
    {
      "epoch": "2026-03-30T09:47:44.482272Z",
      "apogee_km": 630.0442813431537,
      "perigee_km": 628.8040831651188,
      "latitude_deg": -1.3676300007552728e-05,
      "longitude_deg": 14.256826923618167,
      "height_km": 630.4343353791915,
      "semi_major_axis_km": 7007.561182254136,
      "eccentricity": 8.849e-05,
      "inclination_deg": 51.9035,
      "raan_deg": 348.9925,
      "arg_perigee_deg": 115.2017,
      "mean_anomaly_deg": 244.9037,
      "mean_motion_rev_day": 14.79968305
    },
    {
      "epoch": "2026-03-30T21:08:25.340640Z",
      "apogee_km": 630.0319134728661,
      "perigee_km": 628.7723783867759,
      "latitude_deg": 1.5021319544443288e-05,
      "longitude_deg": -158.46970292354592,
      "height_km": 630.4265091760901,
      "semi_major_axis_km": 7007.539145929821,
      "eccentricity": 8.987e-05,
      "inclination_deg": 51.9033,
      "raan_deg": 346.9021,
      "arg_perigee_deg": 116.224,
      "mean_anomaly_deg": 243.8815,
      "mean_motion_rev_day": 14.79975286
    },
    {
      "epoch": "2026-03-31T10:06:20.400480Z",
      "apogee_km": 630.0039954115491,
      "perigee_km": 628.7576382926436,
      "latitude_deg": 9.777502986625937e-06,
      "longitude_deg": 4.129611995724256,
      "height_km": 630.4140483873822,
      "semi_major_axis_km": 7007.517816852096,
      "eccentricity": 8.893e-05,
      "inclination_deg": 51.9033,
      "raan_deg": 344.5133,
      "arg_perigee_deg": 117.4352,
      "mean_anomaly_deg": 242.6701,
      "mean_motion_rev_day": 14.79982043
    },
    {
      "epoch": "2026-03-31T23:04:16.619808Z",
      "apogee_km": 629.9704912319285,
      "perigee_km": 629.0530498548887,
      "latitude_deg": -1.8263302811437886e-05,
      "longitude_deg": 166.724264741141,
      "height_km": 630.337817641881,
      "semi_major_axis_km": 7007.648770543408,
      "eccentricity": 6.546e-05,
      "inclination_deg": 51.9032,
      "raan_deg": 342.1247,
      "arg_perigee_deg": 100.0146,
      "mean_anomaly_deg": 260.089,
      "mean_motion_rev_day": 14.79940558
    },
    {
      "epoch": "2026-04-02T09:06:24.211296Z",
      "apogee_km": 629.805500769161,
      "perigee_km": 629.3790103666661,
      "latitude_deg": 6.762267214864431e-06,
      "longitude_deg": 8.523568669439909,
      "height_km": 630.3125089401777,
      "semi_major_axis_km": 7007.729255567913,
      "eccentricity": 3.043e-05,
      "inclination_deg": 51.9021,
      "raan_deg": 335.8534,
      "arg_perigee_deg": 82.9093,
      "mean_anomaly_deg": 277.1904,
      "mean_motion_rev_day": 14.79915062
    }
  ]
}